{
  "norad_id": 53970,
  "name": "STARLINK-4567",
  "history": [
    {
      "epoch": "2026-03-28T20:17:04.582752",
      "apogee_km": 540.7124737042168,
      "perigee_km": 538.7688267996027,
      "latitude_deg": 14.153874129413625,
      "longitude_deg": 18.138425279874355,
      "semi_major_axis_km": 6917.8776502519095,
      "eccentricity": 0.00014048,
      "inclination_deg": 53.2164,
      "raan_deg": 133.1693,
      "arg_perigee_deg": 81.7853,
      "mean_anomaly_deg": 278.3299,
      "mean_motion_rev_day": 15.08840896
    }
  ]
}