{"fetched_at":"2026-03-29T16:36:15Z","count":15609,"tles":[{"name":"STARLINK-4567","line1":"1 53970U 22125G   26087.84519193  .00001055  00000+0  84356-4 0  9999","line2":"2 53970  53.2164 133.1693 0001404  81.7853 278.3299 15.08840896192296","category":"Starlink"}]}